start=new Date('2022-12-23T00:00:00.000Z').valueOf();
sats=[{"NORAD_CAT_ID":"45387","MEAN_MOTION_DOT":"0.00002115","FILE":"3719655","SEMIMAJOR_AXIS":"6925.363","REV_AT_EPOCH":"15321","LAUNCH_DATE":"2020-03-18","ARG_OF_PERICENTER":"68.2970","APOAPSIS":"548.492","ECCENTRICITY":"0.00018260","COUNTRY_CODE":"US","MEAN_MOTION_DDOT":"0.0000000000000","INCLINATION":"53.0537","GP_ID":"221233016","DECAY_DATE":null,"MEAN_MOTION":"15.06395434","MEAN_ELEMENT_THEORY":"SGP4","TLE_LINE1":"1 45387U 20019AD  22356.75061848  .00002115  00000-0  16086-3 0  9999","RCS_SIZE":"LARGE","PERIAPSIS":"545.963","CENTER_NAME":"EARTH","RA_OF_ASC_NODE":"12.1520","EPHEMERIS_TYPE":"0","ELEMENT_SET_NO":"999","REF_FRAME":"TEME","OBJECT_ID":"2020-019AD","BSTAR":"0.00016086000000","EPOCH":"2022-12-22T18:00:53.436672","MEAN_ANOMALY":"291.8213","OBJECT_NAME":"STARLINK-1274","CLASSIFICATION_TYPE":"U","TIME_SYSTEM":"UTC","PERIOD":"95.592","TLE_LINE2":"2 45387  53.0537  12.1520 0001826  68.2970 291.8213 15.06395434153210","OBJECT_TYPE":"PAYLOAD","SITE":"AFETR"},{"MEAN_MOTION_DDOT":"0.0000000000000","DECAY_DATE":null,"GP_ID":"221211925","MEAN_ELEMENT_THEORY":"SGP4","MEAN_MOTION":"15.06394796","INCLINATION":"53.0529","TLE_LINE1":"1 45388U 20019AE  22356.91832620  .00002045  00000-0  15616-3 0  9992","CENTER_NAME":"EARTH","PERIAPSIS":"545.871","RCS_SIZE":"LARGE","RA_OF_ASC_NODE":"31.4023","EPHEMERIS_TYPE":"0","FILE":"3719601","SEMIMAJOR_AXIS":"6925.365","NORAD_CAT_ID":"45388","MEAN_MOTION_DOT":"0.00002045","LAUNCH_DATE":"2020-03-18","REV_AT_EPOCH":"15296","APOAPSIS":"548.588","ARG_OF_PERICENTER":"59.6460","ECCENTRICITY":"0.00019620","COUNTRY_CODE":"US","PERIOD":"95.592","TLE_LINE2":"2 45388  53.0529  31.4023 0001962  59.6460 300.4723 15.06394796152967","OBJECT_TYPE":"PAYLOAD","SITE":"AFETR","ELEMENT_SET_NO":"999","REF_FRAME":"TEME","OBJECT_ID":"2020-019AE","BSTAR":"0.00015616000000","EPOCH":"2022-12-22T22:02:23.383680","MEAN_ANOMALY":"300.4723","TIME_SYSTEM":"UTC","CLASSIFICATION_TYPE":"U","OBJECT_NAME":"STARLINK-1280"},{"EPHEMERIS_TYPE":"0","RCS_SIZE":"LARGE","PERIAPSIS":"545.548","CENTER_NAME":"EARTH","RA_OF_ASC_NODE":"13.8709","INCLINATION":"53.0543","GP_ID":"221197134","DECAY_DATE":null,"MEAN_MOTION":"15.06395577","MEAN_ELEMENT_THEORY":"SGP4","TLE_LINE1":"1 45389U 20019AF  22356.36726987 -.00001265  00000-0 -66006-4 0  9995","MEAN_MOTION_DDOT":"0.0000000000000","ECCENTRICITY":"0.00024250","COUNTRY_CODE":"US","ARG_OF_PERICENTER":"35.3135","APOAPSIS":"548.907","MEAN_MOTION_DOT":"-0.00001265","NORAD_CAT_ID":"45389","SEMIMAJOR_AXIS":"6925.362","FILE":"3719197","REV_AT_EPOCH":"15316","LAUNCH_DATE":"2020-03-18","SITE":"AFETR","OBJECT_TYPE":"PAYLOAD","PERIOD":"95.592","TLE_LINE2":"2 45389  53.0543  13.8709 0002425  35.3135 324.8014 15.06395577153168","MEAN_ANOMALY":"324.8014","TIME_SYSTEM":"UTC","CLASSIFICATION_TYPE":"U","OBJECT_NAME":"STARLINK-1283","EPOCH":"2022-12-22T08:48:52.116768","BSTAR":"-0.00006600600000","ELEMENT_SET_NO":"999","REF_FRAME":"TEME","OBJECT_ID":"2020-019AF"},{"ECCENTRICITY":"0.00021990","COUNTRY_CODE":"US","ARG_OF_PERICENTER":"46.3196","APOAPSIS":"548.784","MEAN_MOTION_DOT":"-0.00000542","NORAD_CAT_ID":"45390","SEMIMAJOR_AXIS":"6925.396","FILE":"3719655","REV_AT_EPOCH":"15321","LAUNCH_DATE":"2020-03-18","EPHEMERIS_TYPE":"0","RCS_SIZE":"LARGE","CENTER_NAME":"EARTH","PERIAPSIS":"545.738","RA_OF_ASC_NODE":"12.2026","INCLINATION":"53.0552","MEAN_ELEMENT_THEORY":"SGP4","GP_ID":"221232265","DECAY_DATE":null,"MEAN_MOTION":"15.06384513","TLE_LINE1":"1 45390U 20019AG  22356.73955230 -.00000542  00000-0 -17477-4 0  9998","MEAN_MOTION_DDOT":"0.0000000000000","MEAN_ANOMALY":"313.7975","CLASSIFICATION_TYPE":"U","TIME_SYSTEM":"UTC","OBJECT_NAME":"STARLINK-1284","EPOCH":"2022-12-22T17:44:57.318720","BSTAR":"-0.00001747700000","ELEMENT_SET_NO":"999","REF_FRAME":"TEME","OBJECT_ID":"2020-019AG","SITE":"AFETR","OBJECT_TYPE":"PAYLOAD","PERIOD":"95.593","TLE_LINE2":"2 45390  53.0552  12.2026 0002199  46.3196 313.7975 15.06384513153219"},{"ECCENTRICITY":"0.00013480","COUNTRY_CODE":"US","ARG_OF_PERICENTER":"76.3158","APOAPSIS":"548.183","MEAN_MOTION_DOT":"-0.00000648","NORAD_CAT_ID":"45391","FILE":"3719655","SEMIMAJOR_AXIS":"6925.384","REV_AT_EPOCH":"15294","LAUNCH_DATE":"2020-03-18","EPHEMERIS_TYPE":"0","RCS_SIZE":"LARGE","PERIAPSIS":"546.316","CENTER_NAME":"EARTH","RA_OF_ASC_NODE":"12.1389","INCLINATION":"53.0549","GP_ID":"221233515","MEAN_ELEMENT_THEORY":"SGP4","DECAY_DATE":null,"MEAN_MOTION":"15.06388422","TLE_LINE1":"1 45391U 20019AH  22356.75334741 -.00000648  00000-0 -24622-4 0  9996","MEAN_MOTION_DDOT":"0.0000000000000","MEAN_ANOMALY":"283.7981","TIME_SYSTEM":"UTC","CLASSIFICATION_TYPE":"U","OBJECT_NAME":"STARLINK-1289","EPOCH":"2022-12-22T18:04:49.216224","BSTAR":"-0.00002462200000","ELEMENT_SET_NO":"999","REF_FRAME":"TEME","OBJECT_ID":"2020-019AH","SITE":"AFETR","OBJECT_TYPE":"PAYLOAD","PERIOD":"95.593","TLE_LINE2":"2 45391  53.0549  12.1389 0001348  76.3158 283.7981 15.06388422152948"},{"EPHEMERIS_TYPE":"0","RCS_SIZE":"LARGE","CENTER_NAME":"EARTH","PERIAPSIS":"499.321","RA_OF_ASC_NODE":"346.0580","INCLINATION":"52.9907","MEAN_ELEMENT_THEORY":"SGP4","GP_ID":"221233766","DECAY_DATE":null,"MEAN_MOTION":"15.21793851","TLE_LINE1":"1 45392U 20019AJ  22356.69597839  .00029772  00000-0  13042-2 0  9998","MEAN_MOTION_DDOT":"0.0000000000000","ECCENTRICITY":"0.00016150","COUNTRY_CODE":"US","ARG_OF_PERICENTER":"347.6036","APOAPSIS":"501.543","MEAN_MOTION_DOT":"0.00029772","NORAD_CAT_ID":"45392","FILE":"3719655","SEMIMAJOR_AXIS":"6878.567","REV_AT_EPOCH":"15324","LAUNCH_DATE":"2020-03-18","SITE":"AFETR","OBJECT_TYPE":"PAYLOAD","PERIOD":"94.625","TLE_LINE2":"2 45392  52.9907 346.0580 0001615 347.6036  12.4918 15.21793851153247","MEAN_ANOMALY":"12.4918","TIME_SYSTEM":"UTC","CLASSIFICATION_TYPE":"U","OBJECT_NAME":"STARLINK-1290","EPOCH":"2022-12-22T16:42:12.532896","BSTAR":"0.00130420000000","ELEMENT_SET_NO":"999","REF_FRAME":"TEME","OBJECT_ID":"2020-019AJ"},{"APOAPSIS":"548.835","ARG_OF_PERICENTER":"35.3057","ECCENTRICITY":"0.00023490","COUNTRY_CODE":"US","FILE":"3719197","SEMIMAJOR_AXIS":"6925.343","MEAN_MOTION_DOT":"0.00002282","NORAD_CAT_ID":"45393","LAUNCH_DATE":"2020-03-18","REV_AT_EPOCH":"15292","PERIAPSIS":"545.582","CENTER_NAME":"EARTH","RCS_SIZE":"LARGE","RA_OF_ASC_NODE":"13.7897","EPHEMERIS_TYPE":"0","MEAN_MOTION_DDOT":"0.0000000000000","DECAY_DATE":null,"GP_ID":"221197634","MEAN_MOTION":"15.06401663","MEAN_ELEMENT_THEORY":"SGP4","INCLINATION":"53.0556","TLE_LINE1":"1 45393U 20019AK  22356.38569553  .00002282  00000-0  17206-3 0  9991","EPOCH":"2022-12-22T09:15:24.093792","MEAN_ANOMALY":"324.8087","CLASSIFICATION_TYPE":"U","OBJECT_NAME":"STARLINK-1291","TIME_SYSTEM":"UTC","ELEMENT_SET_NO":"999","REF_FRAME":"TEME","OBJECT_ID":"2020-019AK","BSTAR":"0.00017206000000","OBJECT_TYPE":"PAYLOAD","SITE":"AFETR","PERIOD":"95.592","TLE_LINE2":"2 45393  53.0556  13.7897 0002349  35.3057 324.8087 15.06401663152929"},{"PERIOD":"95.593","TLE_LINE2":"2 45394  53.0534  12.1718 0001848  56.0885 304.0279 15.06379689152951","OBJECT_TYPE":"PAYLOAD","SITE":"AFETR","ELEMENT_SET_NO":"999","REF_FRAME":"TEME","OBJECT_ID":"2020-019AL","BSTAR":"-0.00012104000000","EPOCH":"2022-12-22T17:55:34.128192","MEAN_ANOMALY":"304.0279","OBJECT_NAME":"STARLINK-1292","CLASSIFICATION_TYPE":"U","TIME_SYSTEM":"UTC","MEAN_MOTION_DDOT":"0.0000000000000","INCLINATION":"53.0534","DECAY_DATE":null,"GP_ID":"221232765","MEAN_MOTION":"15.06379689","MEAN_ELEMENT_THEORY":"SGP4","TLE_LINE1":"1 45394U 20019AL  22356.74692278 -.00002083  00000-0 -12104-3 0  9996","RCS_SIZE":"LARGE","PERIAPSIS":"545.996","CENTER_NAME":"EARTH","RA_OF_ASC_NODE":"12.1718","EPHEMERIS_TYPE":"0","MEAN_MOTION_DOT":"-0.00002083","NORAD_CAT_ID":"45394","FILE":"3719655","SEMIMAJOR_AXIS":"6925.411","REV_AT_EPOCH":"15295","LAUNCH_DATE":"2020-03-18","ARG_OF_PERICENTER":"56.0885","APOAPSIS":"548.556","ECCENTRICITY":"0.00018480","COUNTRY_CODE":"US"},{"TLE_LINE2":"2 45395  53.0567  12.0315 0002671  31.3799 328.7349 15.06398101152406","PERIOD":"95.592","SITE":"AFETR","OBJECT_TYPE":"PAYLOAD","BSTAR":"0.00002387200000","OBJECT_ID":"2020-019AM","REF_FRAME":"TEME","ELEMENT_SET_NO":"999","TIME_SYSTEM":"UTC","CLASSIFICATION_TYPE":"U","OBJECT_NAME":"STARLINK-1297","MEAN_ANOMALY":"328.7349","EPOCH":"2022-12-22T18:38:01.106880","TLE_LINE1":"1 45395U 20019AM  22356.77640170  .00000074  00000-0  23872-4 0  9995","MEAN_ELEMENT_THEORY":"SGP4","GP_ID":"221233017","DECAY_DATE":null,"MEAN_MOTION":"15.06398101","INCLINATION":"53.0567","MEAN_MOTION_DDOT":"0.0000000000000","EPHEMERIS_TYPE":"0","RA_OF_ASC_NODE":"12.0315","CENTER_NAME":"EARTH","PERIAPSIS":"545.370","RCS_SIZE":"LARGE","LAUNCH_DATE":"2020-03-18","REV_AT_EPOCH":"15240","FILE":"3719655","SEMIMAJOR_AXIS":"6925.354","NORAD_CAT_ID":"45395","MEAN_MOTION_DOT":"0.00000074","COUNTRY_CODE":"US","ECCENTRICITY":"0.00026710","APOAPSIS":"549.069","ARG_OF_PERICENTER":"31.3799"},{"COUNTRY_CODE":"US","ECCENTRICITY":"0.00018370","ARG_OF_PERICENTER":"40.5778","APOAPSIS":"548.504","REV_AT_EPOCH":"15293","LAUNCH_DATE":"2020-03-18","MEAN_MOTION_DOT":"0.00000667","NORAD_CAT_ID":"45396","SEMIMAJOR_AXIS":"6925.367","FILE":"3719655","EPHEMERIS_TYPE":"0","RA_OF_ASC_NODE":"12.1111","RCS_SIZE":"LARGE","CENTER_NAME":"EARTH","PERIAPSIS":"545.960","TLE_LINE1":"1 45396U 20019AN  22356.75797363  .00000667  00000-0  63670-4 0  9999","INCLINATION":"53.0557","GP_ID":"221233267","MEAN_MOTION":"15.06393949","DECAY_DATE":null,"MEAN_ELEMENT_THEORY":"SGP4","MEAN_MOTION_DDOT":"0.0000000000000","CLASSIFICATION_TYPE":"U","TIME_SYSTEM":"UTC","OBJECT_NAME":"STARLINK-1303","MEAN_ANOMALY":"319.5348","EPOCH":"2022-12-22T18:11:28.921632","BSTAR":"0.00006367000000","OBJECT_ID":"2020-019AN","REF_FRAME":"TEME","ELEMENT_SET_NO":"999","SITE":"AFETR","OBJECT_TYPE":"PAYLOAD","TLE_LINE2":"2 45396  53.0557  12.1111 0001837  40.5778 319.5348 15.06393949152933","PERIOD":"95.593"}];
